STARLINK-36636          
1 67611U 26018Y   26043.25003472 -.00144337  00000+0 -76336-3 0  9997
2 67611  97.2747 107.7997 0001550  68.9245 276.7395 15.80870556  3269
STARLINK-36407          
1 67612U 26018Z   26043.25003472 -.00012026  00000+0 -62119-4 0  9992
2 67612  97.2809 107.8031 0001089  94.8441 256.0297 15.80820619  3360
STARLINK-36597          
1 67613U 26018AA  26043.25003472 -.00031623  00000+0 -16467-3 0  9991
2 67613  97.2805 107.8051 0001426  71.6849 285.0003 15.80852493  3260
NEONSAT-1A              
1 67614U 26019A   26043.29376107  .00003438  00000+0  22958-3 0  9998
2 67614  97.4086 167.7865 0012022 260.0448  99.9424 15.07598620  1990
ELECTRON KICK STAGE R/B 
1 67616U 26019C   26043.25969957  .00423687  52018-4  20699-2 0  9999
2 67616  97.4045 168.7437 0183101 214.6498 144.2722 15.61739402  2058
STARLINK-36548          
1 67617U 26020A   26043.25003472  .00071221  00000+0  43700-3 0  9994
2 67617  42.9986 296.8960 0001787 267.8759 313.9589 15.76349425  3304
STARLINK-36601          
1 67618U 26020B   26043.13930214  .00314339  00000+0  14366-2 0  9990
2 67618  42.9977 297.4504 0002041 252.8009 107.2640 15.82092452  2057
STARLINK-36119          
1 67619U 26020C   26043.25003472 -.00016299  00000+0 -97202-4 0  9999
2 67619  42.9989 296.8650 0002062 264.0749 330.1992 15.76383581  3300
STARLINK-36607          
1 67620U 26020D   26043.13752851  .00270269  00000+0  12432-2 0  9997
2 67620  42.9984 297.4352 0002269 249.0875 110.9754 15.82070905  2056
STARLINK-36615          
1 67621U 26020E   26043.13817869  .00313315  00000+0  14306-2 0  9991
2 67621  42.9980 297.4414 0001807 275.0992  84.9674 15.82115066  2057
STARLINK-36614          
1 67622U 26020F   26043.25003472 -.00068438  00000+0 -41970-3 0  9995
2 67622  43.0019 296.8027 0002371 264.5180 354.6145 15.76414461  3308
STARLINK-36600          
1 67623U 26020G   26043.25003472 -.00021760  00000+0 -13088-3 0  9992
2 67623  42.9989 296.8338 0001519 264.1283 342.5867 15.76382379  3300
